EVENT_NAME: 202504230949
EVENT_ID: 18651
EVENT_DATE_YYYYMMDD: 20250423
EVENT_TIME_HHMMSS: 094910
EVENT_LATITUDE_DEGREE: 40.86
EVENT_LONGITUDE_DEGREE: 28.24444
EVENT_DEPTH_KM: 6.92
HYPOCENTER_REFERENCE: AFAD
MAGNITUDE_W: 6.2
MAGNITUDE_W_REFERENCE: AFAD
MAGNITUDE_L: 
MAGNITUDE_L_REFERENCE: 
FOCAL_MECHANISM: 
NETWORK: TK
STATION_CODE: 3416
STATION_NAME: 
STATION_LATITUDE_DEGREE: 40.97466
STATION_LONGITUDE_DEGREE: 28.83635
STATION_ELEVATION_M: 30.0
LOCATION: Istanbul_Silivri_Turkiye
SENSOR_DEPTH_M: 
VS30_M/S: 420
SITE_CLASSIFICATION_EC8: B
MORPHOLOGIC_CLASSIFICATION: 
EPICENTRAL_DISTANCE_KM: 51.34
EARTHQUAKE_BACKAZIMUTH_DEGREE: 
DATE_TIME_FIRST_SAMPLE_YYYYMMDD_HHMMSS: 20250423_094853
DATE_TIME_FIRST_SAMPLE_PRECISION: millisecond
SAMPLING_INTERVAL_S: 0.01
NDATA: 10501
DURATION_S: 
STREAM: HNN
UNITS: cm/s^2
INSTRUMENT: sensor = AC-73,/GeoSig | digitizer = 
INSTRUMENT_ANALOG/DIGITAL: 
INSTRUMENTAL_FREQUENCY_HZ: 
INSTRUMENTAL_DAMPING: 
FULL_SCALE_G: 
N_BIT_DIGITAL_CONVERTER: 
PGA_CM/S^2: 37.950
TIME_PGA_S: 
BASELINE_CORRECTION: -
FILTER_TYPE: BUTTERWORTH
FILTER_ORDER: 
LOW_CUT_FREQUENCY_HZ: 
HIGH_CUT_FREQUENCY_HZ: 
LATE/NORMAL_TRIGGERED: 
DATABASE_VERSION: 
HEADER_FORMAT: DYNA 1.2
DATA_TYPE: Acceleration
PROCESSING: Unprocessed
DATA_TIMESTAMP_YYYYMMDD_HHMMSS: 
DATA_LICENSE: U (unknown license)
DATA_CITATION: Turkish Accelerometric Archive v 1.0 - Disaster And Emergency Management Presidency, Earthquake Department
DATA_CREATOR: AFAD
ORIGINAL_DATA_MEDIATOR_CITATION: : AFAD - Disaster And Emergency Management Presidency
ORIGINAL_DATA_MEDIATOR: AFAD PROCESS SERVICE
ORIGINAL_DATA_CREATOR_CITATION: AFAD PROCESS SERVICE
ORIGINAL_DATA_CREATOR: network: TK
USER1: GuestUser
USER2: 
USER3: 
USER4: 
USER5: 
[...]
-0.180804
-0.182701
-0.180703
-0.184679
-0.176705
-0.173927
-0.185696
-0.188113
-0.186634
-0.156320
-0.173544
-0.201419
-0.192666
-0.170925
-0.169705
-0.201736
-0.183892
-0.173840
-0.188466
-0.199456
-0.189664
-0.153635
-0.189563
-0.211983
-0.176993
-0.171098
-0.190919
-0.199311
-0.175752
-0.174532
-0.189938
-0.191836
-0.187499
-0.180045
-0.190515
-0.182542
-0.165216
-0.181142
-0.196288
-0.191691
-0.187354
-0.194188
-0.181798
-0.178241
-0.200660
-0.189829
-0.171205
-0.184013
-0.203056
-0.184691
-0.175939
-0.186928
-0.193242
-0.197997
-0.173398
-0.180492
-0.210185
-0.185846
-0.156831
-0.198214
-0.207385
-0.177071
-0.182086
-0.181126
-0.200429
-0.191676
-0.179546
-0.192094
-0.194771
-0.187577
-0.165576
-0.186177
-0.207817
-0.193090
-0.175245
-0.191950
-0.196965
-0.175483
-0.185953
-0.190968
-0.195464
-0.188269
-0.174841
-0.199079
-0.197080
-0.182093
-0.183730
-0.193681
-0.197917
-0.191762
-0.195478
-0.180490
-0.189921
-0.190780
-0.190340
-0.197173
-0.184264
-0.198371
-0.190657
-0.185541
-0.177308
-0.185180
-0.204483
-0.199626
-0.192432
-0.185758
-0.189214
-0.178383
-0.180800
-0.202960
-0.205637
-0.182077
-0.185793
-0.182236
-0.192966
-0.193045
-0.168187
-0.212427
-0.219520
-0.185569
-0.169023
-0.201834
-0.209187
-0.169521
-0.188564
-0.201112
-0.203270
-0.183866
-0.184205
-0.211561
-0.197093
-0.189639
-0.178808
-0.197071
-0.206502
-0.175929
-0.190555
-0.211936
-0.199806
-0.185338
-0.193990
-0.196926
-0.188953
-0.195527
-0.186254
-0.182956
-0.205116
-0.197143
-0.189689
-0.196782
-0.203096
-0.205513
-0.185850
-0.189046
-0.195620
-0.197518
-0.201234
-0.188844
-0.199314
-0.197575
-0.173756
-0.198254
-0.211581
-0.195815
-0.187062
-0.184284
-0.212938
-0.203925
-0.181145
-0.196031
-0.210657
-0.202684
-0.188216
-0.198686
-0.191752
-0.195208
-0.204639
-0.187833
-0.191290
-0.198123
-0.197423
-0.192307
-0.192127
-0.200259
-0.200078
-0.208211
-0.195821
-0.191484
-0.207669
-0.188526
-0.185488
-0.203491
-0.206168
-0.189622
-0.197235
-0.210822
-0.189341
-0.200331
-0.195994
-0.185422
-0.206283
-0.189218
-0.195012
-0.210158
-0.208159
-0.208758
-0.187017
-0.194110
-0.200943
-0.199984
-0.196686
-0.195986
-0.208534
-0.197963
-0.198822
-0.195784
-0.208072
-0.205294
-0.186410
-0.207531
-0.204753
-0.198078
-0.200496
-0.195639
-0.201434
-0.211904
-0.189123
-0.186605
-0.225910
-0.210143
-0.180868
-0.191598
-0.212979
-0.204226
-0.194953
-0.194254
-0.200567
-0.209998
-0.194751
-0.199247
-0.197248
-0.207199
-0.202602
-0.188394
-0.206657
-0.205957
-0.205777
-0.194946
-0.199701
-0.209132
-0.195963
-0.197341
-0.207552
-0.212567
-0.200177
-0.184670
-0.213584
-0.218859
-0.189065
-0.192521
-0.198055
-0.217877
-0.203929
-0.195176
-0.220194
-0.212999
-0.185283
-0.188220
-0.215835
-0.202666
-0.203525
-0.197889
-0.210957
-0.214413
-0.189035
-0.203921
-0.203741
-0.205639
-0.204679
-0.208395
-0.204318
-0.208814
-0.205516
-0.197542
-0.219442
-0.216924
-0.218562
-0.190326
-0.181574
-0.210487
-0.218360
-0.201554
-0.196958
-0.218338
-0.205169
-0.202911
-0.194677
-0.192159
-0.211721
-0.195175
-0.196813
-0.223908
-0.215415
-0.185881
-0.201806
-0.234617
-0.200406
-0.182561
-0.211995
-0.211555
-0.200204
-0.199764
-0.216988
-0.215249
-0.218705
-0.208654
-0.197043
-0.219723
-0.201358
-0.204295
-0.218922
-0.206013
-0.202195
-0.221238
-0.221837
-0.201914
-0.214722
-0.197916
-0.198255
-0.205868
-0.198674
-0.212261
-0.206106
-0.208004
-0.202628
-0.216475
-0.214996
-0.190657
-0.212297
-0.221208
-0.201026
-0.186818
-0.205341
-0.219448
-0.228359
-0.220905
-0.194488
-0.226259
-0.225040
-0.186673
-0.203378
-0.213069
-0.208992
-0.200499
-0.204994
-0.221439
-0.219180
-0.215623
-0.196999
-0.217340
-0.220277
-0.188924
-0.207187
-0.218177
-0.216178
-0.205607
-0.219714
-0.226547
-0.207404
-0.213458
-0.200289
-0.208421
-0.214735
-0.212736
-0.207100
-0.208998
-0.240510
-0.210715
-0.219107
-0.225941
-0.195367
-0.218566
-0.203059
-0.192228
-0.216466
-0.220962
-0.210390
-0.223978
-0.232889
-0.206212
-0.199278
-0.198838
-0.205411
-0.216141
-0.212584
-0.210065
-0.231706
-0.234123
-0.199133
-0.215318
-0.230724
-0.212879
-0.205945
-0.208362
-0.213377
-0.220211
-0.225485
-0.204004
-0.216812
-0.235595
-0.205800
-0.194450
-0.212713
-0.215390
-0.209235
-0.215549
-0.206796
-0.223760
-0.231113
-0.199760
-0.214647
-0.241482
-0.207272
-0.189427
-0.213665
-0.231928
-0.226033
-0.195979
-0.219957
-0.237441
-0.229468
-0.207726
-0.204169
-0.242175
-0.216796
-0.196094
-0.216176
-0.235478
-0.211659
-0.211738
-0.239353
-0.223067
-0.204702
-0.196729
-0.219149
-0.222345
-0.226061
-0.207957
-0.206477
-0.245522
-0.210273
-0.202299
-0.224459
-0.224279
-0.226696
-0.224437
-0.208671
-0.204074
-0.237924
-0.225015
-0.217820
-0.238941
-0.226032
-0.227670
-0.219696
-0.227049
-0.235181
-0.206686
-0.178191
-0.193077
-0.236798
-0.211419
-0.220591
-0.255739
-0.224646
-0.197709
-0.168175
-0.189815
-0.261071
-0.269983
-0.289805
-0.356126
-0.303472
-0.202240
-0.151665
-0.134859
-0.234950
-0.316337
-0.326028
-0.331563
-0.303847
-0.234307
-0.114633
-0.020675
0.036915
-0.078762
-0.323805
-0.424676
-0.449693
-0.264296
0.086574
0.226512
0.065894
-0.582053
-1.373914
-1.421011
-0.507477
0.646864
1.280885
1.198198
0.289441
-1.047677
-2.065019
-2.096270
-0.842697
0.703638
1.376885
0.799595
-0.598830
-1.674619
-1.391808
0.047501
0.938435
0.680144
-0.158995
-1.830438
-3.108589
-2.258179
-0.110215
2.098275
3.110522
2.654026
1.576937
-0.100741
-1.488774
-2.435198
-2.900786
-2.322097
-1.192434
-0.056276
0.639050
0.967321
0.207153
-0.264670
0.697701
0.910374
0.880161
0.757989
-0.458336
-0.743384
0.103129
0.868334
2.354403
2.669165
1.529212
-0.471880
-4.695050
-7.244778
-5.085385
0.929265
4.986024
3.753333
0.650033
-3.472606
-4.649446
-2.070523
0.997029
5.161073
8.918056
6.708628
-1.873234
-9.468227
-12.377218
-7.895994
0.968859
5.460993
5.358564
2.490617
-1.124950
-0.390398
3.392043
5.046702
5.114943
2.817712
-1.444424
-2.273951
0.598513
3.418763
3.162550
-1.080622
-3.709321
-0.879459
-0.026192
-2.621639
-5.146170
-6.619148
-4.324934
-1.885247
0.299085
3.544060
6.036480
7.743873
5.917086
3.359565
1.941658
-1.820939
-6.638465
-9.270800
-6.615504
1.454970
11.497883
13.919905
5.023981
-3.993776
-7.432179
-3.943539
-0.471784
-3.767833
-4.742052
-4.415860
-5.713234
-6.871630
-7.212529
-1.677935
3.947838
4.223895
0.415059
-3.522884
-1.000590
2.216330
2.264828
3.073414
4.600526
6.222195
6.269913
4.964227
2.735835
0.218319
-1.918634
-6.265455
-11.815534
-14.838044
-10.697899
-1.211155
5.020143
7.667386
6.475739
0.778890
-2.071393
-1.031870
0.067659
0.117976
-0.458015
0.615018
1.070316
-0.888953
-0.531328
3.734806
4.433249
-2.040314
-9.461261
-11.309348
-4.884001
1.488872
1.506977
-0.072768
-0.580699
2.047841
3.839400
-0.540932
-4.464067
-1.680445
3.426567
4.629485
1.879993
-0.403730
0.100406
2.465278
6.130043
7.028510
5.372133
3.355714
-1.295558
-4.657069
-3.920179
1.190209
6.004718
3.025589
-3.993752
-9.210285
-10.268930
-8.072908
-4.342162
0.258296
3.920463
6.469773
5.391386
1.422271
-0.153837
-0.922837
-0.620543
2.937975
5.867329
4.271738
-1.968291
-4.016402
0.889027
2.602655
-1.958477
-7.251903
-9.237149
-9.055649
-6.963535
-3.798310
-0.547360
3.104416
4.452546
3.783038
2.553205
1.451958
1.200161
0.429602
-1.798790
-2.722614
-1.166148
-0.859957
-2.914822
-5.088662
-3.709359
-0.629598
-0.672540
-3.571919
-6.914727
-5.834680
-0.543232
3.876686
4.158977
1.591066
0.116528
-0.246711
0.396662
1.374619
2.298284
2.506021
2.933784
4.951603
4.960875
3.659345
0.149765
-3.984304
-2.517199
0.269281
0.663274
-1.143251
-3.064334
-3.665782
-6.897148
-8.601842
-6.119813
-4.517628
-2.905570
0.140940
2.422946
3.355183
4.265860
5.183030
6.477388
6.948013
4.653640
0.785316
-2.138482
-1.958021
-1.533895
-2.856726
-2.251540
-0.111888
-1.678125
-5.771150
-8.201384
-7.884283
-3.971697
-0.299140
0.017701
-0.243967
1.060781
2.041076
1.292338
0.174206
0.066841
3.258823
6.579912
5.150314
0.485534
-4.517468
-6.394650
-4.509833
-2.433046
-1.020233
1.202804
2.924744
2.503317
0.625875
-1.507180
-2.831570
-4.765902
-5.996515
-2.833367
0.556820
1.967815
2.584950
0.690104
-0.558433
0.605520
1.574905
1.188806
-0.116101
-0.042146
1.074269
-0.089063
-2.218482
-1.888653
-0.693008
-1.024815
-3.848081
-6.405342
-5.414397
-4.089386
-2.712941
0.068863
1.372832
1.305732
2.204199
3.594412
4.206353
4.723996
4.634816
4.365874
4.740903
4.906817
4.662553
2.989032
1.432667
-0.656488
-3.604185
-4.666986
-4.261823
-0.787730
3.841563
4.493768
2.128217
2.276986
4.259217
3.571005
1.813318
-0.187515
0.970723
4.242195
3.221996
0.907360
-0.005553
0.249982
1.081948
1.674665
2.160877
1.644893
-0.319572
-3.560290
-5.638794
-4.912814
-2.475986
-0.710924
-1.424333
-1.994609
-1.433584
-2.113223
-2.684278
-1.694631
-0.363127
-0.140842
-1.797219
-2.643891
-0.501122
2.098842
2.303203
0.600587
-0.358306
-0.299158
-0.309368
-1.580505
-3.860851
-3.857294
-2.621904
-2.213624
-3.059516
-4.199469
-2.082678
0.849014
1.370295
0.607789
-0.859735
-1.927991
-2.396177
-3.735634
-4.315261
-3.132865
-2.833169
-3.136660
-2.454063
-0.798104
0.761739
-0.341846
-2.779873
-2.986470
-2.724440
-2.228358
-0.458360
0.690526
2.289075
3.830994
4.641139
4.749904
3.359792
2.924337
2.819830
2.706491
3.964221
4.250149
3.885092
3.209609
0.156186
-2.828918
-3.608569
-3.568644
-3.542746
-4.146272
-4.983333
-5.910793
-5.359120
-1.296646
2.088865
2.203864
0.743614
-0.967055
-0.920376
-0.857071
-1.486055
-1.117520
-1.200985
-0.590084
1.367468
3.079017
3.634327
1.839233
-0.766346
-2.350247
-3.186787
-3.751088
-3.630374
-2.408753
-0.849689
-0.374128
-1.141570
-2.938223
-5.996841
-7.985465
-7.548610
-5.568458
-2.975247
-1.063674
-0.552525
-0.586894
0.262736
1.603333
3.239549
3.857983
3.346935
3.653385
3.563425
3.047701
2.751224
1.867145
0.596527
0.375383
1.454651
1.550946
-0.060230
-1.542041
-1.695905
-1.488428
-1.257831
-0.038806
1.565198
1.689029
0.373212
0.041405
0.806610
0.312707
-0.811920
-1.017997
-1.637110
-2.653931
-2.103817
-0.318492
0.129273
-1.565810
-3.588723
-4.737768
-5.176340
-4.848329
-3.244844
-1.079995
0.546349
1.158809
2.472650
4.703480
4.306471
2.283298
1.157633
2.383411
4.798939
4.660142
4.214556
4.547503
4.307655
4.513574
4.634028
4.519650
4.234342
3.346627
2.477874
1.779272
1.701001
1.392055
0.797620
2.313303
2.586502
-0.197020
-2.277082
-1.740216
0.348520
-0.605956
-2.605750
-1.766510
-1.000526
-1.851094
-2.901686
-1.329893
0.605059
0.444961
0.054706
-0.314248
0.182094
0.477894
0.386115
1.543054
3.332275
4.172294
2.577223
0.477158
-0.341459
0.265286
1.366115
0.389038
-1.852862
-2.866566
-2.180851
-1.338754
-1.254148
-1.745713
-2.692916
-2.286455
-1.157311
-1.041792
-1.408928
-2.516409
-3.607265
-3.752816
-3.894990
-4.401103
-4.259347
-3.597531
-3.603066
-3.253234
-1.988230
-1.847254
-2.260109
-1.043163
0.627602
1.247076
0.688490
0.330187
0.548055
-0.513187
-1.614694
-1.576068
-0.989066
-0.351668
0.410680
1.610221
2.528950
3.558082
4.127680
4.088635
3.580964
2.811704
2.628226
2.163937
1.939935
1.094303
-0.807038
-2.305215
-3.018884
-2.240690
-1.537051
-2.446068
-4.124525
-5.530223
-5.899177
-5.229048
-4.693740
-4.671479
-3.518956
-1.137718
0.505511
1.681933
3.377117
3.714739
2.676617
2.451316
1.965466
0.214532
-0.124028
1.129546
0.569401
-0.678876
-0.311121
-0.136115
-0.474675
-0.594249
0.226287
1.701445
0.839187
-0.363630
0.218437
0.655551
1.830414
3.416494
3.948945
2.766390
1.403813
2.038873
2.062433
0.427617
-1.369296
-1.690451
-0.239192
-0.364481
-2.039042
-2.848307
-3.761999
-4.199532
-3.034021
-2.619247
-2.452813
-1.579284
-1.502731
-0.854423
1.199504
3.353703
3.582741
1.848953
1.405705
2.355866
3.140034
4.084481
4.629141
4.538142
3.821875
2.665037
1.970071
1.526563
1.635328
1.751885
2.775043
5.162515
5.614177
4.571378
2.552102
0.757007
1.678854
2.739938
2.916502
2.751209
2.574226
3.434507
4.139445
4.008961
4.146560
4.937482
4.951430
4.336993
4.383933
5.279283
6.756778
6.909964
6.298644
6.463259
7.385885
9.333047
10.654161
11.172843
12.685408
15.232640
17.505553
17.917470
16.655425
15.720171
14.769332
12.779669
10.517507
8.669420
8.685186
8.496254
6.733890
5.728239
4.284874
2.315474
1.075769
1.164012
2.420703
2.770534
2.853062
3.938824
5.417099
7.260352
9.974096
13.047104
15.020242
15.900006
16.045398
15.138199
14.330233
13.626955
12.274510
10.983890
9.135803
6.803762
4.852806
2.597917
0.664105
-0.153212
-0.393060
-0.149994
-0.790148
-2.286506
-1.626508
1.273232
3.135967
1.418804
-0.833746
0.100310
1.289720
0.078070
-2.588295
-5.405846
-8.107540
-11.314228
-13.408838
-11.067864
-6.805887
-5.834164
-7.638610
-9.624896
-9.236099
-7.826922
-8.213800
-8.394940
-6.778466
-3.256056
-0.385410
-1.327418
-3.892213
-3.815660
-1.459100
-0.459842
-2.799155
-7.492251
-11.398761
-14.762090
-18.704449
-21.851130
-25.584632
-29.966003
-30.868266
-29.047093
-27.770400
-26.319401
-24.193517
-21.642909
-21.400362
-23.935283
-25.038868
-24.456802
-23.628992
-23.768568
-23.147276
-19.832682
-17.013731
-16.043827
-18.100770
-23.570060
-29.890878
-35.593182
-37.949641
-35.611005
-31.058864
-26.838710
-24.682174
-24.370528
-24.381518
-24.964003
-25.464401
-22.446985
-15.927341
-8.638776
-1.843256
3.099061
8.803544
14.359439
15.660291
16.114031
16.845725
18.232821
17.439142
12.169356
9.118011
7.850771
6.134127
2.571553
-3.352855
-6.734628
-7.353221
-5.552311
-3.160422
-3.036851
-3.566862
-3.056492
0.068469
4.518780
7.520090
8.610528
9.903327
14.798625
21.830277
27.431631
31.030934
31.362582
27.120448
21.006148
16.269930
13.338859
11.063189
8.950395
9.015778
10.776943
12.494467
13.825972
13.129448
11.568147
9.290139
6.512592
5.475509
5.683765
6.674191
6.284456
5.253087
4.362255
1.650690
-1.961500
-7.523009
-12.376902
-14.194856
-14.507180
-11.854482
-6.811634
-0.098461
5.003614
5.513724
3.949047
1.122403
0.432633
2.811793
5.355127
8.751029
9.711582
6.688292
3.288854
2.724813
5.993947
9.090074
8.212229
3.665644
-0.952637
-2.888787
-1.501951
0.878768
1.473823
1.425166
0.002064
-3.251903
-6.760444
-8.755302
-8.848119
-10.530733
-14.376457
-18.285305
-20.775545
-19.803043
-15.043605
-7.917137
-1.317744
2.128034
2.168739
0.335718
0.403958
2.322804
3.021508
3.172096
5.061328
10.660345
17.148556
21.938128
25.539248
25.739712
22.451196
16.732526
9.726693
3.197539
-1.907293
-4.734456
-8.618366
-14.425098
-19.050393
-21.082398
-18.143952
-13.827943
-12.917266
-13.928373
-15.552278
-16.548318
-17.581246
-18.516239
-17.482951
-15.085348
-12.796069
-11.853440
-10.679876
-7.798320
-5.175495
-5.731484
-8.511628
-9.285564
-8.033549
-7.493825
-7.750558
-6.499582
-3.734403
-1.685412
-1.757447
-4.244311
-6.448025
-6.666311
-5.633023
-3.062152
1.080330
5.918219
8.466489
8.249502
9.139137
12.751428
17.576588
20.300203
20.885647
20.656190
19.066574
17.595414
15.580813
12.208652
9.024824
7.124522
7.180034
7.099425
5.432918
4.066445
2.961041
0.031529
-3.326865
-5.146378
-6.175928
-6.706200
-6.708617
-3.332977
2.511003
5.395937
7.239190
10.148541
14.332847
18.034239
19.397177
22.454597
26.488236
29.391094
31.077185
30.156739
27.991471
26.368605
25.041098
22.418894
18.764881
15.678986
13.451374
10.758772
7.547928
6.250814
5.794057
3.260435
-0.573339
-4.320869
-8.002158
-10.967519
-12.355813
-11.684904
-11.291172
-13.135103
-13.394953
-10.812912
-8.449339
-6.905601
-4.267710
-0.336420
2.835299
5.605674
8.495023
10.162152
9.009730
6.358691
4.803105
3.585741
1.487754
-1.754782
-2.472868
-0.268533
0.183908
-1.539490
-4.887493
-7.003144
-7.082713
-7.102535
-6.048725
-5.356256
-5.754044
-6.064290
-6.052679
-5.287734
-4.215740
-3.045553
-1.611179
-1.301092
-3.332838
-5.431604
-6.113321
-6.661257
-7.093335
-7.219403
-6.793199
-6.373229
-5.864937
-4.501480
-4.594558
-5.749837
-5.755891
-4.170590
-0.249692
3.365716
4.008050
2.109047
-1.316887
-4.110799
-6.272950
-8.416137
-9.675324
-10.167929
-9.458315
-7.711956
-6.397856
-6.648094
-7.792983
-7.608625
-5.830315
-5.255262
-7.369614
-8.970140
-7.249759
-3.471215
-0.502376
0.873030
1.496920
0.799616
-1.921820
-5.232416
-6.990103
-7.947438
-8.995951
-10.088366
-11.299496
-11.969004
-12.911531
-14.143183
-15.104674
-15.993688
-16.265487
-15.966571
-15.510753
-14.739833
-12.791373
-10.177380
-8.382704
-7.762192
-7.986973
-8.212533
-9.513544
-11.275387
-11.239358
-10.871083
-10.614249
-10.017116
-8.654698
-7.421647
-8.477693
-10.123679
-10.670836
-9.677812
-8.609195
-7.402900
-4.293525
-2.123740
-0.691184
1.433141
3.593573
6.070927
6.744432
6.034140
5.097068
3.405622
2.859765
2.259356
1.024067
0.371704
-0.144800
1.077602
1.571086
-0.307654
-1.710755
-2.758489
-2.941447
-2.042200
-0.237653
2.523370
3.105696
2.061858
2.254529
2.298870
1.489605
-0.995699
-3.458145
-3.432766
-3.431027
-2.222394
0.693972
3.265621
5.099003
5.030084
4.816993
3.861737
1.244209
-0.441002
-1.799682
-1.930426
-0.323564
1.146658
2.036293
0.118587
-3.141094
-5.432610
-8.093520
-9.624427
-9.519819
-8.794359
-7.476622
-4.863669
-0.567662
3.222832
5.958657
7.701638
8.468402
8.745758
7.954677
8.408676
10.964221
13.623933
15.492383
15.999636
16.079046
15.222244
12.244673
8.753796
5.921178
4.157776
3.345394
2.535350
2.015210
1.660284
1.108971
0.151637
-1.078976
-0.804737
-0.242933
-1.369897
-3.447882
-4.481588
-3.603383
-3.903498
-5.663523
-7.195989
-8.117475
-6.591922
-4.947653
-4.594444
-3.462443
-3.212623
-3.463641
-3.753624
-5.010993
-5.252400
-5.235854
-4.757695
-2.681428
-1.267576
-0.716422
-0.778067
-1.676433
-2.873535
-4.875927
-8.087290
-11.339698
-13.361832
-13.865087
-12.309660
-10.526933
-9.954218
-9.327731
-8.559149
-7.917595
-8.306551
-9.539761
-10.873503
-11.936304
-11.821305
-11.798005
-11.463240
-10.549187
-10.089732
-8.531967
-7.102269
-6.104049
-4.627073
-4.389722
-4.493710
-5.000861
-5.134722
-3.668656
-2.472492
-1.075525
0.111548
0.052241
-1.094986
-2.328716
-2.516350
-2.005200
-0.057000
3.204601
7.668939
11.664651
13.645583
14.590549
13.544893
11.924624
10.620496
9.789930
12.208835
15.574084
16.181868
13.864895
9.718357
6.922626
6.116478
5.159664
4.140764
2.732208
1.788122
1.611399
1.035668
2.454456
5.173655
7.255378
8.784049
9.420407
10.699438
11.651418
12.192441
13.581615
14.537492
15.202945
15.423930
16.921948
20.649058
23.908580
25.816776
25.770717
24.340341
23.303257
23.220830
22.259600
18.654424
14.487624
11.274182
8.861612
6.775055
6.103209
7.347951
8.020677
8.108141
8.636435
9.999632
10.484544
8.196665
5.243253
2.250097
-0.384316
-1.986661
-2.986078
-2.537793
-1.680889
-1.075703
0.238397
2.095418
4.945802
7.830735
8.632568
7.919938
7.036378
8.223191
10.812765
11.278714
10.965871
10.481060
9.596721
9.116845
8.092490
7.327387
6.319917
4.648473
